id;name;key;contact_name;contact_email;contact_phone;address_line1;address_line2;state;suburb;postcode;created_by;last_modified_by
5000;Yet Another;874c2ac7650216946ebe;Blake Jefferson;ca@izo.pm;(907) 688-3300;1877;ifi Trail;QLD;Glen Waverly;2108;system;system
5001;Meriton;04ce96b2d5d3ae6c20e5;Jeremy Pearson;cir@ta.nl;(926) 525-2848;81;Jajgaw Pass;VIC;Richmond;7028;system;system
5002;Blah Blah;5f883515bc38850bcd5a;Ruby Goodwin;jiwmi@boelaime.st;(548) 745-5235;1256; Abuhi Manor;NSW;Richmond;5107;system;system
5003;Super Client;8f577dee1015170e8b59;Henrietta Mendez;fefe@mikpocdem.sk;(534) 776-9000;183;Kucos Heights;QLD;Richmond;5107;system;system
5004;Porter Davis;25383d59b95649a2aacd;Claudia Matthews;gamzopulu@pa.tl;(209) 532-7778;1997;elo Turnpike;NSW;Richmond;5107;system;system
5005;Blah;af113e2d874196fa96d5;Jerry Lynch;akrenpac@bosemwoh.gg;(971) 591-3744;648;oro Loop;NSW;Norh Shore;7028;system;system
5006;Blah Blah;fb26c756f44297d9262f;Winnie Davidson;wa@bubzinek.ru;(402) 829-9316;505 ;ifha Boulevard;VIC;Carlton;3006;system;system
5007;Meriton;5de4cc42e263a94880ab;Marion Brown;mu@hij.nz;(228) 489-7612;1252;Vaboz Highway;VIC;Glen Waverly;5107;system;system
5008;Symmonds;e902e56e7fbc40533dc3;Eddie Adams;te@kiwif.bs;(552) 982-2279;592 ; Fowmuw Parkway;NSW;Norh Shore;5107;system;system
5009;Symmonds;3de5fc01a242c34e811d;Nina Cox;ag@ram.ne;(530) 289-4860;65 K;newu Grove;SA;Norh Shore;5107;system;system
5010;Porter Davis;49c301c9f8e9d22822e6;Rodney Hunt;hohfojza@pira.br;(989) 550-7301;1923; Sipzov Point;QLD;Brunswick;2108;system;system
5011;Metricon;4870c4812d5850653c03;Jerome Brady;susti@up.cu;(688) 200-1101;1267; Arovu Pike;NSW;Norh Shore;2108;system;system
5012;Blah Blah;9bf8aa1638ce59fd8d9e;Myrtle Chandler;zi@sa.ve;(561) 590-6647;1785;Uvtu Pike;QLD;Richmond;7028;system;system
5013;Porter Davis;f6579a651f144de2fdf2;Katherine Elliott;wa@ehudofde.kp;(710) 727-2233;133;Rapzih Boulevard;QLD;Richmond;2108;system;system
5014;Blah;fa9bbd5b77669cec8daf;Tom Baldwin;taigu@nukero.my;(547) 273-4634;1475;Lifduw Manor;SA;Glen Waverly;7028;system;system
5015;Meriton;adf19bf2266f559e243c;Lola Ramos;watine@usuhog.je;(617) 325-9173;787;Bapnuz Turnpike;VIC;Brunswick;2108;system;system
5016;Porter Davis;6a43dca158108925d4f1;Chester Ramirez;hikifun@dug.ma;(500) 346-6476;143;Rutzog Road;VIC;Glen Waverly;3006;system;system
5017;Yet Another;dc85a7795f1c6f41d1c3;Lucinda King;zetlufo@toh.cx;(671) 875-1534;503 ;Fokes Circle;VIC;Brunswick;3006;system;system
5018;Blah;002ccf43bbddd582dd39;Bettie Walters;duspudle@cozuhlo.uy;(988) 934-6995;801;Tuno Boulevard;NSW;Richmond;2108;system;system
5019;Blah Blah;2ca48aab84918592dc71;Bess Mendez;wekuk@pogugoz.im;(411) 460-5800;145;Wolfu Street;SA;Brunswick;5107;system;system
5020;Porter Davis;37afefc770f6a35434a0;Carrie Chavez;tejto@nigruipa.je;(773) 997-2468;1383;ato Pike;SA;Richmond;2108;system;system
5021;Blah Blah;4497b4983a35219b58b0;Alex Lindsey;nomnoga@sis.si;(381) 539-7408;48;epa Grove;QLD;Brunswick;2108;system;system
5022;Yet Another;1bfeae6f2236c7406bda;Bernard Wallace;iza@lubgof.sa;(965) 849-2291;1609; Ceofo Ridge;SA;Carlton;5107;system;system
5023;Blah Blah;f7026e0d5dd182594867;Isabel Simmons;wibab@gew.ve;(608) 687-7713;542 ;amsah Center;VIC;Brunswick;3006;system;system
5024;Meriton;0b009a83e9c04efb9474;Nell Figueroa;kophup@lorvon.tf;(448) 852-5150;650;ozo Manor;NSW;Richmond;2108;system;system
5025;Random;cc3d52dbbb26df5eb3dc;Bradley Reynolds;ponna@esesnob.tt;(732) 630-6054;1580;Herer Highway;NSW;Brunswick;5107;system;system
5026;Meriton;b1074db74071de2ae61f;Sarah Morgan;ujinas@ko.kr;(977) 558-6578;119;Cokedo Park;QLD;Brunswick;5107;system;system
5027;Random;0d21e544c490a832311f;Addie Burgess;durjevjap@fusuloh.dj;(737) 459-7132;787 ; Disi Avenue;SA;Norh Shore;7028;system;system
5028;Symmonds;fbb1f6a3fc1a1fbe198e;Edgar Collier;muw@mez.eg;(381) 261-8335;972 ; Poiw Key;VIC;Carlton;2108;system;system
5029;Blah;539bd3c9859c61e5b5ec;Garrett Harper;len@buzisuw.com;(504) 856-2011;990 ;Koem Terrace;VIC;Brunswick;7028;system;system
5030;Random;179b1ef48b69d5aef5d0;Dean Blake;pasimu@no.ng;(350) 437-9385;18 E; Hunmi Parkway;WA;Brunswick;7028;system;system
5031;Random;31678a5db98f7a4e91f8;Cornelia Lee;cute@gamlode.py;(544) 403-2546;629 ;Gisuv Place;SA;Carlton;3006;system;system
5032;Yet Another;41c5ab3cfe774ba7e110;Leo Doyle;bo@zaj.sd;(201) 823-3602;19; Uriri Path;SA;Norh Shore;2108;system;system
5033;Blah Blah;f6161d5e7a03324cfb49;Ralph Schultz;ojbov@ozohe.hr;(955) 434-4836;271 ;ico Path;VIC;Brunswick;7028;system;system
5034;Symmonds;81fcc17fccfccbf4d30f;Thomas Sparks;to@becilid.ro;(832) 550-7503;118; Gefib Heights;NSW;Norh Shore;3006;system;system
5035;Meriton;81b20803f0281933f00b;Cole Myers;dijruv@lemawe.ca;(516) 585-9341;532 ;Geawu Path;VIC;Norh Shore;5107;system;system
5036;Blah Blah;3014d135d4932afaa81a;Alberta Rodgers;agmiavi@mug.ad;(234) 656-9712;832 ;Kuclig Drive;QLD;Brunswick;5107;system;system
5037;Super Client;b775dd6561c33209183f;Connor Johnson;ronol@ic.iq;(808) 633-5031;150;Miaf Key;QLD;Norh Shore;7028;system;system
5038;Super Client;760a0d9963cdd07a0e26;Nathaniel Beck;boravsoh@ced.dk;(434) 354-7298;622 ;Sedub Pass;SA;Carlton;2108;system;system
5039;Blah;3560fb15add04b8e36f5;Lilly Kelly;da@ak.sc;(741) 760-4513;167; Tegtu River;NSW;Carlton;7028;system;system
5040;Blah;0a99b16f721d3f5eea2d;Maurice Santiago;consas@voed.rw;(469) 717-3141;1324;Zuzi Path;QLD;Richmond;7028;system;system
5041;Blah;22ccb2cc0e40fdbedead;Helena Ramos;de@jaw.ws;(762) 845-4679;152; Tihe Path;SA;Richmond;2108;system;system
5042;Yet Another;6e5cc21c9b8ea179d941;Frederick Price;ul@bunudut.py;(526) 218-1992;699;Kecgob Avenue;SA;Richmond;2108;system;system
5043;Blah;8e4d84fd55234b91b54e;Sue Pierce;kiinuut@higgamlap.ne;(821) 310-3984;324 ; Lejjaw Path;WA;Richmond;5107;system;system
5044;Meriton;aef95f62885e1065da2a;Leon Burns;se@no.do;(208) 985-2362;1931; Pavjir Ridge;WA;Glen Waverly;5107;system;system
5045;Super Client;1cd4b2847d721ef7c281;Aiden Payne;pon@jiwfe.by;(704) 793-2886;1024;Ibagid Boulevard;QLD;Brunswick;3006;system;system
5046;Metricon;d21a4eeafaa043b3287a;Katherine Lyons;gu@pu.mv;(973) 698-1161;1155;Fisruk Glen;WA;Glen Waverly;5107;system;system
5047;Blah Blah;8ede9c94342bf5aa5a77;Andre Henderson;rusa@roeleza.ba;(806) 207-1304;752; Dubre Circle;VIC;Richmond;7028;system;system
5048;Porter Davis;cc4d7269faf063df46ae;Robert Sharp;marpab@udhawja.it;(865) 822-2097;51 J;uzer Center;NSW;Carlton;3006;system;system
5049;Random;95d421fe5560d01bb407;Sara Waters;sitkurgus@rollijgi.sr;(766) 566-5947;197;Sekrur View;WA;Brunswick;7028;system;system